start=new Date('2022-10-27T00:00:00.000Z').valueOf();
sats=[{"REV_AT_EPOCH":"9248","LAUNCH_DATE":"2021-03-04","TIME_SYSTEM":"UTC","RA_OF_ASC_NODE":"322.8512","RCS_SIZE":"MEDIUM","OBJECT_TYPE":"PAYLOAD","SEMIMAJOR_AXIS":"6925.352","ARG_OF_PERICENTER":"32.1854","CLASSIFICATION_TYPE":"U","SITE":"AFETR","MEAN_MOTION":"15.06398995","TLE_LINE2":"2 47726  53.0563 322.8512 0002479  32.1854 327.9285 15.06398995 92482","MEAN_ELEMENT_THEORY":"SGP4","DECAY_DATE":null,"APOAPSIS":"548.933","MEAN_ANOMALY":"327.9285","PERIAPSIS":"545.500","ELEMENT_SET_NO":"999","COUNTRY_CODE":"US","FILE":"3635100","NORAD_CAT_ID":"47726","OBJECT_NAME":"STARLINK-2126","EPOCH":"2022-10-26T19:00:51.087744","CENTER_NAME":"EARTH","PERIOD":"95.592","INCLINATION":"53.0563","OBJECT_ID":"2021-017E","REF_FRAME":"TEME","BSTAR":"0.00028005000000","TLE_LINE1":"1 47726U 21017E   22299.79225796  .00003892  00000-0  28005-3 0  9998","ECCENTRICITY":"0.00024790","GP_ID":"216263743","MEAN_MOTION_DDOT":"0.0000000000000","EPHEMERIS_TYPE":"0","MEAN_MOTION_DOT":"0.00003892"},{"DECAY_DATE":null,"APOAPSIS":"548.519","MEAN_ELEMENT_THEORY":"SGP4","TLE_LINE2":"2 47727  53.0540 242.4800 0001846  39.1499 320.9623 15.06391070 92996","MEAN_MOTION":"15.06391070","PERIAPSIS":"545.963","MEAN_ANOMALY":"320.9623","RA_OF_ASC_NODE":"242.4800","RCS_SIZE":"LARGE","OBJECT_TYPE":"PAYLOAD","TIME_SYSTEM":"UTC","LAUNCH_DATE":"2021-03-04","REV_AT_EPOCH":"9299","SITE":"AFETR","CLASSIFICATION_TYPE":"U","ARG_OF_PERICENTER":"39.1499","SEMIMAJOR_AXIS":"6925.376","REF_FRAME":"TEME","BSTAR":"0.00028278000000","OBJECT_ID":"2021-017F","PERIOD":"95.593","INCLINATION":"53.0540","CENTER_NAME":"EARTH","OBJECT_NAME":"STARLINK-2129","EPOCH":"2022-10-26T21:01:33.453696","NORAD_CAT_ID":"47727","MEAN_MOTION_DOT":"0.00003932","GP_ID":"216263993","MEAN_MOTION_DDOT":"0.0000000000000","EPHEMERIS_TYPE":"0","ECCENTRICITY":"0.00018460","TLE_LINE1":"1 47727U 21017F   22299.87608164  .00003932  00000-0  28278-3 0  9999","ELEMENT_SET_NO":"999","FILE":"3635100","COUNTRY_CODE":"US"},{"TIME_SYSTEM":"UTC","OBJECT_TYPE":"PAYLOAD","RCS_SIZE":"LARGE","RA_OF_ASC_NODE":"324.1509","REV_AT_EPOCH":"9250","LAUNCH_DATE":"2021-03-04","CLASSIFICATION_TYPE":"U","SITE":"AFETR","SEMIMAJOR_AXIS":"6925.412","ARG_OF_PERICENTER":"45.4186","APOAPSIS":"548.606","DECAY_DATE":null,"MEAN_MOTION":"15.06379363","TLE_LINE2":"2 47728  53.0551 324.1509 0001920  45.4186 314.6959 15.06379363 92509","MEAN_ELEMENT_THEORY":"SGP4","MEAN_ANOMALY":"314.6959","PERIAPSIS":"545.947","ELEMENT_SET_NO":"999","COUNTRY_CODE":"US","FILE":"3634846","CENTER_NAME":"EARTH","OBJECT_ID":"2021-017G","PERIOD":"95.593","INCLINATION":"53.0551","BSTAR":"0.00009540400000","REF_FRAME":"TEME","NORAD_CAT_ID":"47728","OBJECT_NAME":"STARLINK-2131","EPOCH":"2022-10-26T12:01:32.837664","GP_ID":"216207708","MEAN_MOTION_DDOT":"0.0000000000000","EPHEMERIS_TYPE":"0","MEAN_MOTION_DOT":"0.00001139","TLE_LINE1":"1 47728U 21017G   22299.50107451  .00001139  00000-0  95404-4 0  9996","ECCENTRICITY":"0.00019200"},{"NORAD_CAT_ID":"47729","OBJECT_NAME":"STARLINK-2132","EPOCH":"2022-10-26T07:56:44.071296","CENTER_NAME":"EARTH","OBJECT_ID":"2021-017H","PERIOD":"95.592","INCLINATION":"53.0546","BSTAR":"0.00041443000000","REF_FRAME":"TEME","TLE_LINE1":"1 47729U 21017H   22299.33106564  .00005897  00000-0  41443-3 0  9990","ECCENTRICITY":"0.00018540","GP_ID":"216208435","EPHEMERIS_TYPE":"0","MEAN_MOTION_DDOT":"0.0000000000000","MEAN_MOTION_DOT":"0.00005897","ELEMENT_SET_NO":"999","COUNTRY_CODE":"US","FILE":"3634846","MEAN_MOTION":"15.06403609","TLE_LINE2":"2 47729  53.0546 270.1230 0001854  60.2685 299.8488 15.06403609 93187","MEAN_ELEMENT_THEORY":"SGP4","APOAPSIS":"548.486","DECAY_DATE":null,"MEAN_ANOMALY":"299.8488","PERIAPSIS":"545.919","REV_AT_EPOCH":"9318","LAUNCH_DATE":"2021-03-04","TIME_SYSTEM":"UTC","RCS_SIZE":"LARGE","RA_OF_ASC_NODE":"270.1230","OBJECT_TYPE":"PAYLOAD","SEMIMAJOR_AXIS":"6925.337","ARG_OF_PERICENTER":"60.2685","CLASSIFICATION_TYPE":"U","SITE":"AFETR"},{"LAUNCH_DATE":"2021-03-04","REV_AT_EPOCH":"9224","OBJECT_TYPE":"PAYLOAD","RCS_SIZE":"LARGE","RA_OF_ASC_NODE":"339.0569","TIME_SYSTEM":"UTC","ARG_OF_PERICENTER":"40.7718","SEMIMAJOR_AXIS":"6925.372","SITE":"AFETR","CLASSIFICATION_TYPE":"U","MEAN_ELEMENT_THEORY":"SGP4","TLE_LINE2":"2 47730  53.0557 339.0569 0002442  40.7718 319.3453 15.06392353 92244","MEAN_MOTION":"15.06392353","APOAPSIS":"548.928","DECAY_DATE":null,"PERIAPSIS":"545.546","MEAN_ANOMALY":"319.3453","ELEMENT_SET_NO":"999","FILE":"3634846","COUNTRY_CODE":"US","OBJECT_NAME":"STARLINK-2140","EPOCH":"2022-10-26T12:34:02.886528","NORAD_CAT_ID":"47730","BSTAR":"0.00005656600000","REF_FRAME":"TEME","PERIOD":"95.593","INCLINATION":"53.0557","OBJECT_ID":"2021-017J","CENTER_NAME":"EARTH","ECCENTRICITY":"0.00024420","TLE_LINE1":"1 47730U 21017J   22299.52364452  .00000561  00000-0  56566-4 0  9991","MEAN_MOTION_DOT":"0.00000561","GP_ID":"216207209","EPHEMERIS_TYPE":"0","MEAN_MOTION_DDOT":"0.0000000000000"},{"RCS_SIZE":"LARGE","RA_OF_ASC_NODE":"332.8423","OBJECT_TYPE":"PAYLOAD","TIME_SYSTEM":"UTC","REV_AT_EPOCH":"9236","LAUNCH_DATE":"2021-03-04","SITE":"AFETR","CLASSIFICATION_TYPE":"U","SEMIMAJOR_AXIS":"6925.339","ARG_OF_PERICENTER":"44.2967","APOAPSIS":"548.574","DECAY_DATE":null,"TLE_LINE2":"2 47731  53.0552 332.8423 0001977  44.2967 315.8180 15.06402970 92365","MEAN_ELEMENT_THEORY":"SGP4","MEAN_MOTION":"15.06402970","PERIAPSIS":"545.835","MEAN_ANOMALY":"315.8180","ELEMENT_SET_NO":"999","COUNTRY_CODE":"US","FILE":"3635100","PERIOD":"95.592","INCLINATION":"53.0552","OBJECT_ID":"2021-017K","REF_FRAME":"TEME","BSTAR":"0.00028314000000","CENTER_NAME":"EARTH","OBJECT_NAME":"STARLINK-2141","EPOCH":"2022-10-26T19:04:49.713312","NORAD_CAT_ID":"47731","MEAN_MOTION_DDOT":"0.0000000000000","GP_ID":"216263493","EPHEMERIS_TYPE":"0","MEAN_MOTION_DOT":"0.00003939","ECCENTRICITY":"0.00019770","TLE_LINE1":"1 47731U 21017K   22299.79501983  .00003939  00000-0  28314-3 0  9994"},{"FILE":"3634846","COUNTRY_CODE":"US","ELEMENT_SET_NO":"999","TLE_LINE1":"1 47732U 21017L   22299.30342096  .00001060  00000-0  90039-4 0  9997","ECCENTRICITY":"0.00018140","MEAN_MOTION_DOT":"0.00001060","MEAN_MOTION_DDOT":"0.0000000000000","GP_ID":"216208209","EPHEMERIS_TYPE":"0","NORAD_CAT_ID":"47732","OBJECT_NAME":"STARLINK-2142","EPOCH":"2022-10-26T07:16:55.570944","CENTER_NAME":"EARTH","REF_FRAME":"TEME","BSTAR":"0.00009003900000","INCLINATION":"53.0550","PERIOD":"95.592","OBJECT_ID":"2021-017L","ARG_OF_PERICENTER":"57.6134","SEMIMAJOR_AXIS":"6925.346","CLASSIFICATION_TYPE":"U","SITE":"AFETR","LAUNCH_DATE":"2021-03-04","REV_AT_EPOCH":"9347","TIME_SYSTEM":"UTC","RCS_SIZE":"LARGE","OBJECT_TYPE":"PAYLOAD","RA_OF_ASC_NODE":"250.2880","MEAN_ANOMALY":"302.5031","PERIAPSIS":"545.954","MEAN_MOTION":"15.06400964","MEAN_ELEMENT_THEORY":"SGP4","TLE_LINE2":"2 47732  53.0550 250.2880 0001814  57.6134 302.5031 15.06400964 93470","APOAPSIS":"548.467","DECAY_DATE":null},{"MEAN_MOTION":"15.06402456","TLE_LINE2":"2 47733  53.0557 342.5955 0001776  51.5791 308.5357 15.06402456 92277","MEAN_ELEMENT_THEORY":"SGP4","APOAPSIS":"548.436","DECAY_DATE":null,"MEAN_ANOMALY":"308.5357","PERIAPSIS":"545.976","REV_AT_EPOCH":"9227","LAUNCH_DATE":"2021-03-04","TIME_SYSTEM":"UTC","OBJECT_TYPE":"PAYLOAD","RCS_SIZE":"LARGE","RA_OF_ASC_NODE":"342.5955","SEMIMAJOR_AXIS":"6925.341","ARG_OF_PERICENTER":"51.5791","CLASSIFICATION_TYPE":"U","SITE":"AFETR","NORAD_CAT_ID":"47733","EPOCH":"2022-10-26T20:23:05.796960","OBJECT_NAME":"STARLINK-2143","CENTER_NAME":"EARTH","PERIOD":"95.592","OBJECT_ID":"2021-017M","INCLINATION":"53.0557","BSTAR":"0.00032903000000","REF_FRAME":"TEME","TLE_LINE1":"1 47733U 21017M   22299.84937265  .00004623  00000-0  32903-3 0  9998","ECCENTRICITY":"0.00017760","GP_ID":"216264488","EPHEMERIS_TYPE":"0","MEAN_MOTION_DDOT":"0.0000000000000","MEAN_MOTION_DOT":"0.00004623","ELEMENT_SET_NO":"999","COUNTRY_CODE":"US","FILE":"3635100"},{"APOAPSIS":"548.375","DECAY_DATE":null,"MEAN_MOTION":"15.06389916","TLE_LINE2":"2 47734  53.0562 334.5928 0001633  52.1943 307.9193 15.06389916 92314","MEAN_ELEMENT_THEORY":"SGP4","MEAN_ANOMALY":"307.9193","PERIAPSIS":"546.114","TIME_SYSTEM":"UTC","OBJECT_TYPE":"PAYLOAD","RCS_SIZE":"LARGE","RA_OF_ASC_NODE":"334.5928","REV_AT_EPOCH":"9231","LAUNCH_DATE":"2021-03-04","CLASSIFICATION_TYPE":"U","SITE":"AFETR","SEMIMAJOR_AXIS":"6925.379","ARG_OF_PERICENTER":"52.1943","CENTER_NAME":"EARTH","INCLINATION":"53.0562","PERIOD":"95.593","OBJECT_ID":"2021-017N","BSTAR":"0.00015960000000","REF_FRAME":"TEME","NORAD_CAT_ID":"47734","OBJECT_NAME":"STARLINK-2144","EPOCH":"2022-10-26T09:42:12.697632","GP_ID":"216206709","EPHEMERIS_TYPE":"0","MEAN_MOTION_DDOT":"0.0000000000000","MEAN_MOTION_DOT":"0.00002096","TLE_LINE1":"1 47734U 21017N   22299.40431363  .00002096  00000-0  15960-3 0  9995","ECCENTRICITY":"0.00016330","ELEMENT_SET_NO":"999","COUNTRY_CODE":"US","FILE":"3634846"},{"FILE":"3635100","COUNTRY_CODE":"US","ELEMENT_SET_NO":"999","MEAN_MOTION_DOT":"0.00003665","GP_ID":"216263994","MEAN_MOTION_DDOT":"0.0000000000000","EPHEMERIS_TYPE":"0","TLE_LINE1":"1 47735U 21017P   22299.61948979  .00003665  00000-0  26490-3 0  9998","ECCENTRICITY":"0.00020360","CENTER_NAME":"EARTH","REF_FRAME":"TEME","BSTAR":"0.00026490000000","PERIOD":"95.593","OBJECT_ID":"2021-017P","INCLINATION":"53.0556","NORAD_CAT_ID":"47735","OBJECT_NAME":"STARLINK-2146","EPOCH":"2022-10-26T14:52:03.917856","CLASSIFICATION_TYPE":"U","SITE":"AFETR","ARG_OF_PERICENTER":"49.0918","SEMIMAJOR_AXIS":"6925.387","TIME_SYSTEM":"UTC","RCS_SIZE":"LARGE","OBJECT_TYPE":"PAYLOAD","RA_OF_ASC_NODE":"258.7944","LAUNCH_DATE":"2021-03-04","REV_AT_EPOCH":"9337","MEAN_ANOMALY":"311.0247","PERIAPSIS":"545.842","DECAY_DATE":null,"APOAPSIS":"548.662","MEAN_MOTION":"15.06387398","MEAN_ELEMENT_THEORY":"SGP4","TLE_LINE2":"2 47735  53.0556 258.7944 0002036  49.0918 311.0247 15.06387398 93373"}];
